[{"OBJECT_NAME":"STARLINK-5067","OBJECT_ID":"2023-021AB","EPOCH":"2026-03-09T17:51:18.658080","MEAN_MOTION":14.98330333,"ECCENTRICITY":0.00035802,"INCLINATION":70.0009,"RA_OF_ASC_NODE":184.1529,"ARG_OF_PERICENTER":271.6002,"MEAN_ANOMALY":88.4747,"EPHEMERIS_TYPE":0,"CLASSIFICATION_TYPE":"U","NORAD_CAT_ID":55653,"ELEMENT_SET_NO":999,"REV_AT_EPOCH":16880,"BSTAR":-7.3128139e-5,"MEAN_MOTION_DOT":-9.66e-6,"MEAN_MOTION_DDOT":0},{"OBJECT_NAME":"COSMOS 2251 DEB","OBJECT_ID":"1993-036AWS","EPOCH":"2026-03-08T21:06:04.726368","MEAN_MOTION":14.95261151,"ECCENTRICITY":0.00284276,"INCLINATION":73.9951,"RA_OF_ASC_NODE":273.3001,"ARG_OF_PERICENTER":6.025,"MEAN_ANOMALY":354.1269,"EPHEMERIS_TYPE":0,"CLASSIFICATION_TYPE":"U","NORAD_CAT_ID":36000,"ELEMENT_SET_NO":999,"REV_AT_EPOCH":61455,"BSTAR":0.0026863031,"MEAN_MOTION_DOT":0.00029903,"MEAN_MOTION_DDOT":0}]
